[
    {
        "Altitude(m)": 624792.801620821,
        "Argument of Periapsis(deg)": 0.0,
        "Eccentricity": 0.0,
        "Inclination(deg)": 60.0,
        "Latitude(deg)": -59.14717715368297,
        "Longitude(deg)": -50.97350724850557,
        "Mean Anomaly(deg)": -98.18179999999997,
        "RAAN(deg)": 155.0,
        "Satellite Name": "Test1 698",
        "Satellite Number": 698,
        "Semi-Major Axis(m)": 6980739.136638005,
        "Time(s)": 0
    },
    {
        "Altitude(m)": 624842.1932203036,
        "Argument of Periapsis(deg)": 0.00010418945913296404,
        "Eccentricity": 0.0,
        "Inclination(deg)": 60.0,
        "Latitude(deg)": -59.28925966055729,
        "Longitude(deg)": -49.8439997266829,
        "Mean Anomaly(deg)": -97.56169385453812,
        "RAAN(deg)": 154.99957995086027,
        "Satellite Name": "Test1 698",
        "Satellite Number": 698,
        "Semi-Major Axis(m)": 6980739.136638005,
        "Time(s)": 10
    }
]